NORAD_CAT_ID,TLE_LINE0,TLE_LINE1,TLE_LINE2,CREATION_DATE,OBJECT_NAME,OBJECT_ID,EPOCH,MEAN_MOTION,ECCENTRICITY,INCLINATION,RA_OF_ASC_NODE,ARG_OF_PERICENTER,MEAN_ANOMALY,REV_AT_EPOCH,BSTAR,MEAN_MOTION_DOT,MEAN_MOTION_DDOT,SEMIMAJOR_AXIS,PERIOD,APOAPSIS,PERIAPSIS,OBJECT_TYPE,COUNTRY_CODE,LAUNCH_DATE,SITE,DECAY_DATE,LAUNCH_YEAR,LAUNCH_SEQ,EPOCH_FINAL,ORBIT_CLASS,EVENT,DURATION,RCS_SIZE
461,0 THOR ABLESTAR DEB,1 00461U 61015EX  25193.49288491  .00010814  00000-0  10484-2 0  9992,2 00461  67.5001 330.7663 0031926 288.5069  71.2599 14.92587137334852,12/07/2025 17:51,THOR ABLESTAR DEB,1961-015EX,12/07/2025 11:49,14.92587137,0.0031926,67.5001,330.7663,288.5069,71.2599,33485,0.0010484,0.00010814,0.0,6968.009,96.477,612.12,567.628,DEBRIS,US,29/06/1961,AFETR,,1961,15,12/07/2025 23:39,LEO,0,23390,SMALL
462,0 THOR ABLESTAR DEB,1 00462U 61015EY  01090.97698689 +.09331192 +18615-0 +33183-1 0  9995,2 00462 067.5494 292.6767 0012757 286.9862 078.4969 15.95351679063745,17/08/2004 15:28,THOR ABLESTAR DEB,1961-015EY,31/03/2001 23:26,15.95351679,0.0012757,67.5494,292.6767,286.9862,78.4969,6374,0.033183,0.09331192,0.18615,6665.475,90.262,295.844,278.837,DEBRIS,US,29/06/1961,AFETR,01/04/2001,1961,15,01/04/2001 22:53,LEO,1,14521,SMALL
463,0 THOR ABLESTAR DEB,1 00463U 61015EZ  25193.50667760  .00001450  00000-0  35579-3 0  9995,2 00463  66.7659 253.1633 0042712 168.4839 191.7260 14.54805072319670,12/07/2025 17:51,THOR ABLESTAR DEB,1961-015EZ,12/07/2025 12:09,14.54805072,0.0042712,66.7659,253.1633,168.4839,191.726,31967,0.00035579,1.45e-05,0.0,7088.135,98.982,740.275,679.725,DEBRIS,US,29/06/1961,AFETR,,1961,15,13/07/2025 00:19,LEO,0,23390,SMALL
464,0 THOR ABLESTAR DEB,1 00464U 61015 FA 89351.94463817 -.67353452 +9842001 +16392-1 0  9996,2 00464 067.5743 134.7559 0009622 052.7775 306.3333 16.12885235485665,02/05/2005 23:40,THOR ABLESTAR DEB,1961-015FA,17/12/1989 22:40,16.12885235,0.0009622,67.5743,134.7559,52.7775,306.3333,48566,0.016392,-0.67353452,9.842,6617.081,89.28,245.313,232.579,DEBRIS,US,29/06/1961,AFETR,18/12/1989,1961,15,18/12/1989 21:20,LEO,1,10399,SMALL
465,0 THOR ABLESTAR DEB,1 00465U 61015FB  25193.46020953  .00001344  00000-0  45910-3 0  9991,2 00465  66.3174  93.0520 0032261 188.8281 171.2256 14.39235480297183,12/07/2025 17:51,THOR ABLESTAR DEB,1961-015FB,12/07/2025 11:02,14.3923548,0.0032261,66.3174,93.052,188.8281,171.2256,29718,0.0004591,1.34e-05,0.0,7139.163,100.053,784.059,737.996,DEBRIS,US,29/06/1961,AFETR,,1961,15,12/07/2025 22:05,LEO,0,23390,SMALL
466,0 THOR ABLESTAR DEB,1 00466U 61015 FC 88331.45768048  .17294205 +30600-4 +30364-2 0  9995,2 00466 066.7275 102.7408 0007230 102.2313 259.3855 16.32376518451703,02/05/2005 23:37,THOR ABLESTAR DEB,1961-015FC,26/11/1988 10:59,16.32376518,0.000723,66.7275,102.7408,102.2313,259.3855,45170,0.0030364,0.17294205,3.06e-05,6564.302,88.214,190.913,181.421,DEBRIS,US,29/06/1961,AFETR,26/11/1988,1961,15,26/11/1988 21:58,LEO,1,10012,SMALL
467,0 THOR ABLESTAR DEB,1 00467U 61015FD  25193.32157938  .00000850  00000-0  10903-2 0  9996,2 00467  66.5567 159.7625 0240842 172.0810 188.4163 13.56111943234833,12/07/2025 17:51,THOR ABLESTAR DEB,1961-015FD,12/07/2025 07:43,13.56111943,0.0240842,66.5567,159.7625,172.081,188.4163,23483,0.0010903,8.5e-06,0.0,7427.993,106.186,1228.755,870.961,DEBRIS,US,29/06/1961,AFETR,,1961,15,12/07/2025 15:26,LEO,0,23390,SMALL
468,0 THOR ABLESTAR DEB,1 00468U 61015 FE 81337.14458554  .46737014 +00000-0 +58268-1 0  9991,2 00468 066.5624 248.3326 0024770 155.8660 204.3680 15.81452330043280,16/08/2004 23:12,THOR ABLESTAR DEB,1961-015FE,03/12/1981 03:28,15.8145233,0.002477,66.5624,248.3326,155.866,204.368,4328,0.058268,0.46737014,0.0,6704.474,91.055,342.946,309.732,DEBRIS,US,29/06/1961,AFETR,03/12/1981,1961,15,03/12/1981 06:56,LEO,1,7462,SMALL
469,0 THOR ABLESTAR DEB,1 00469U 61015FF  25193.62925365  .00000671  00000-0  26505-3 0  9995,2 00469  66.8343 325.8201 0050617  90.4408 270.2493 14.34271248304309,12/07/2025 17:51,THOR ABLESTAR DEB,1961-015FF,12/07/2025 15:06,14.34271248,0.0050617,66.8343,325.8201,90.4408,270.2493,30430,0.00026505,6.71e-06,0.0,7155.626,100.399,813.711,741.272,DEBRIS,US,29/06/1961,AFETR,,1961,15,13/07/2025 06:12,LEO,0,23390,SMALL
470,0 THOR ABLESTAR DEB,1 00470U 61015FG  25193.46930308  .00000750  00000-0  47441-3 0  9992,2 00470  66.2305  68.1898 0066101 179.6942 180.4193 14.08728885264534,12/07/2025 17:51,THOR ABLESTAR DEB,1961-015FG,12/07/2025 11:15,14.08728885,0.0066101,66.2305,68.1898,179.6942,180.4193,26453,0.00047441,7.5e-06,0.0,7241.862,102.22,911.596,815.857,DEBRIS,US,29/06/1961,AFETR,,1961,15,12/07/2025 22:31,LEO,0,23390,SMALL
471,0 THOR ABLESTAR DEB,1 00471U 61015FH  07214.82528601 +.06399554 +61901-5 +34680-2 0  9997,2 00471 066.7851 342.7332 0021168 304.3141 055.6068 16.18836707396112,03/08/2007 11:11,THOR ABLESTAR DEB,1961-015FH,02/08/2007 19:48,16.18836707,0.0021168,66.7851,342.7332,304.3141,55.6068,39611,0.003468,0.06399554,6.19e-06,6600.853,88.952,236.691,208.745,DEBRIS,US,29/06/1961,AFETR,02/08/2007,1961,15,03/08/2007 15:36,LEO,1,16835,SMALL
472,0 THOR ABLESTAR DEB,1 00472U 61015FJ  03116.34862580  .17028133  62475-5  61810-2 0  9995,2 00472 066.6957 059.6737 0010634 239.4619 120.6582 16.24300602177765,17/08/2004 16:12,THOR ABLESTAR DEB,1961-015FJ,26/04/2003 08:22,16.24300602,0.0010634,66.6957,59.6737,239.4619,120.6582,17776,0.006181,0.17028133,6.25e-06,6586.042,88.653,214.91,200.903,DEBRIS,US,29/06/1961,AFETR,26/04/2003,1961,15,26/04/2003 16:44,LEO,1,15276,SMALL
473,0 THOR ABLESTAR DEB,1 00473U 61015 FK 72053.07002668  .01183203 +00000-0 +00000-0 0  9991,2 00473 067.1476 094.0364 0023290 012.7596 347.4103 15.54353325557105,22/04/2005 16:12,THOR ABLESTAR DEB,1961-015FK,22/02/1972 01:40,15.54353325,0.002329,67.1476,94.0364,12.7596,347.4103,55710,0.0,0.01183203,0.0,6782.174,92.643,419.835,388.243,DEBRIS,US,11/04/1961,AFWTR,02/03/1972,1961,15,22/02/1972 03:21,LEO,1,3978,SMALL
474,0 THOR ABLESTAR DEB,1 00474U 61015FL  24079.17187462  .07429424  15678+0  10199-1 0  9995,2 00474  66.2043  98.9533 0005313   1.2143 358.9053 16.11657022270359,20/03/2024 01:36,THOR ABLESTAR DEB,1961-015FL,19/03/2024 04:07,16.11657022,0.0005313,66.2043,98.9533,1.2143,358.9053,27035,0.010199,0.07429424,0.15678,6620.439,89.349,245.821,238.786,DEBRIS,US,29/06/1961,AFETR,28/03/2024,1961,15,19/03/2024 08:14,LEO,1,22918,SMALL
475,0 THOR ABLESTAR DEB,1 00475U 61015FM  25193.42694023  .00002410  00000-0  10163-2 0  9999,2 00475  66.2197 193.2668 0149745 311.4461  47.3844 14.21529047239452,12/07/2025 17:51,THOR ABLESTAR DEB,1961-015FM,12/07/2025 10:14,14.21529047,0.0149745,66.2197,193.2668,311.4461,47.3844,23945,0.0010163,2.41e-05,0.0,7198.323,101.299,927.98,712.397,DEBRIS,US,29/06/1961,AFETR,,1961,15,12/07/2025 20:29,LEO,0,23390,SMALL
476,0 THOR ABLESTAR DEB,1 00476U 61015FN  14092.44605734  .00229013  00000-0  86311-4 0  9999,2 00476 067.0093 056.9552 0020394 182.8530 177.3099 16.23388613723785,03/04/2014 14:23,THOR ABLESTAR DEB,1961-015FN,02/04/2014 10:42,16.23388613,0.0020394,67.0093,56.9552,182.853,177.3099,72378,8.63e-05,0.00229013,0.0,6588.508,88.703,223.81,196.937,DEBRIS,US,29/06/1961,AFETR,02/04/2014,1961,15,02/04/2014 21:24,LEO,1,19270,SMALL
477,0 THOR ABLESTAR DEB,1 00477U 61015 FP 82016.37709437  .05727995 +00000-0 +13916-1 0  9993,2 00477 066.5811 096.4635 0026961 024.4905 336.3268 15.84877205067098,16/08/2004 23:15,THOR ABLESTAR DEB,1961-015FP,16/01/1982 09:03,15.84877205,0.0026961,66.5811,96.4635,24.4905,336.3268,6709,0.013916,0.05727995,0.0,6694.811,90.858,334.726,298.626,DEBRIS,US,29/06/1961,AFETR,18/01/1982,1961,15,16/01/1982 18:06,LEO,1,7508,SMALL
478,0 THOR ABLESTAR DEB,1 00478U 61015FQ  25193.10283834  .00006711  00000-0  78564-3 0  9999,2 00478  66.0620  91.7592 0030505 188.6538 171.4061 14.85370538333481,12/07/2025 17:51,THOR ABLESTAR DEB,1961-015FQ,12/07/2025 02:28,14.85370538,0.0030505,66.062,91.7592,188.6538,171.4061,33348,0.00078564,6.71e-05,0.0,6990.56,96.946,633.75,591.1,DEBRIS,US,29/06/1961,AFETR,,1961,15,12/07/2025 04:56,LEO,0,23390,SMALL
479,0 THOR ABLESTAR DEB,1 00479U 61015FR  22332.25136571  .21369370  62567-5  57489-2 0  9992,2 00479  66.6240 246.4196 0011338 192.4306 167.6612 16.27722259177905,29/11/2022 05:31,THOR ABLESTAR DEB,1961-015FR,28/11/2022 06:01,16.27722259,0.0011338,66.624,246.4196,192.4306,167.6612,17790,0.0057489,0.2136937,6.26e-06,6576.805,88.467,206.127,191.213,DEBRIS,US,29/06/1961,AFETR,29/11/2022,1961,15,28/11/2022 12:03,LEO,1,22433,SMALL
480,0 THOR ABLESTAR DEB,1 00480U 61015FS  25193.49906700  .00000920  00000-0  30541-3 0  9997,2 00480  66.2366 263.6825 0080055 350.0297   9.9209 14.40711400305851,12/07/2025 17:51,THOR ABLESTAR DEB,1961-015FS,12/07/2025 11:58,14.407114,0.0080055,66.2366,263.6825,350.0297,9.9209,30585,0.00030541,9.2e-06,0.0,7134.286,99.951,813.264,699.037,DEBRIS,US,29/06/1961,AFETR,,1961,15,12/07/2025 23:57,LEO,0,23390,SMALL
481,0 FTV 1135,1 00481U 62065  A 62346.67265460  .02290985 +79930-0 +00000-0 0  9992,2 00481 065.1322 046.5735 0000000 146.1020 213.9109 16.29993369002866,15/08/2004 23:35,FTV 1135,1962-065A,12/12/1962 16:08,16.29993369,0.0,65.1322,46.5735,146.102,213.9109,286,0.0,0.02290985,0.7993,6570.698,88.343,192.563,192.563,PAYLOAD,US,14/09/1962,AFWTR,13/12/1962,1962,65,13/12/1962 08:17,LEO,1,90,MEDIUM
482,0 SPUTNIK 22 DEB,1 00482U 62057  G 62343.86253390  .04477796 +92978-0 +00000-0 0  9997,2 00482 064.7462 181.8982 0084400 324.1729 035.2856 16.18614195006957,15/08/2004 23:35,SPUTNIK 22 DEB,1962-057G,09/12/1962 20:42,16.18614195,0.00844,64.7462,181.8982,324.1729,35.2856,695,0.0,0.04477796,0.92978,6601.458,88.964,279.039,167.607,DEBRIS,CIS,20/07/1962,TTMTR,10/12/1962,1962,57,10/12/1962 17:24,LEO,1,143,SMALL
